[{"OBJECT_NAME":"IRIDIUM 173","OBJECT_ID":"2019-002D","EPOCH":"2026-03-09T23:25:14.922624","MEAN_MOTION":14.34217176,"ECCENTRICITY":0.00020878,"INCLINATION":86.3979,"RA_OF_ASC_NODE":35.0129,"ARG_OF_PERICENTER":83.8645,"MEAN_ANOMALY":276.2788,"EPHEMERIS_TYPE":0,"CLASSIFICATION_TYPE":"U","NORAD_CAT_ID":43925,"ELEMENT_SET_NO":999,"REV_AT_EPOCH":37473,"BSTAR":2.1469625e-5,"MEAN_MOTION_DOT":8.0e-7,"MEAN_MOTION_DDOT":0},{"OBJECT_NAME":"METEOR 2-8 DEB","OBJECT_ID":"1982-025G","EPOCH":"2026-03-07T06:10:12.617472","MEAN_MOTION":14.37274749,"ECCENTRICITY":0.0019857,"INCLINATION":82.5134,"RA_OF_ASC_NODE":251.9137,"ARG_OF_PERICENTER":253.337,"MEAN_ANOMALY":106.564,"EPHEMERIS_TYPE":0,"CLASSIFICATION_TYPE":"U","NORAD_CAT_ID":36322,"ELEMENT_SET_NO":999,"REV_AT_EPOCH":64582,"BSTAR":0.0031791,"MEAN_MOTION_DOT":9.517e-5,"MEAN_MOTION_DDOT":0}]
